SLIM                    
1 57803U 23137D   23265.42445464  .00000325  00000+0  00000+0 0  9998
2 57803  31.0764  16.0114 8937970 245.1089 359.8612  0.55215574    76
